{"type": "Feature", "properties": {"name": "outside-texas"}, "geometry": {"type": "Polygon", "coordinates": [[[-180.0, -85.0], [-180.0, 85.0], [180.0, 85.0], [180.0, -85.0], [-180.0, -85.0]], [[-106.38970696610494, 31.47407524778087], [-106.2575634034331, 31.34272597545561], [-106.14126493301501, 31.27269345217842], [-106.06387294577111, 31.256863813491346], [-106.02748516403307, 31.21069289847351], [-105.95747408481937, 31.174314475274027], [-105.85504413858956, 31.053271017226113], [-105.72315995537468, 30.988828088241576], [-105.65629470357045, 30.891103975975152], [-105.52490983303471, 30.80300541259436], [-105.47618994382165, 30.73946893655449], [-105.3611375037293, 30.684829738352317], [-105.27436711688325, 30.668699993686243], [-105.09910187980077, 30.551408883394988], [-105.06496833508012, 30.505521825798755], [-105.02078093750077, 30.479187750516854], [-104.98321898642796, 30.324847703129855], [-104.8726767152625, 30.21521326794127], [-104.83856938323132, 30.163389783395623], [-104.84182082452767, 29.99961591454811], [-104.79806149443993, 29.849542227319457], [-104.69354349334695, 29.70737122260186], [-104.66396272895592, 29.611468036464437], [-104.6264777766215, 29.566164033880558], [-104.44818994322655, 29.426149790653024], [-104.31386690360975, 29.365300692758318], [-104.22750691218057, 29.271139422801234], [-104.1271330253271, 29.2105669320345], [-104.01831673408475, 29.16281052797911], [-103.866771913399, 29.13665646858079], [-103.79462743256462, 29.07015979397791], [-103.59680111639639, 28.99799151200061], [-103.53412424656469, 28.94611912580366], [-103.3270694376115, 28.84986904217371], [-103.1256173706436, 28.842128565512805], [-103.0707234307351, 28.853822606248094], [-103.0248337116561, 28.88613713719391], [-102.97308983211158, 28.977958650088627], [-102.9051385429435, 29.045798773782902], [-102.81437509555087, 29.09634523867228], [-102.74017128066833, 29.1927074095256], [-102.73139303392108, 29.245214899550064], [-102.73902727635014, 29.287055551912935], [-102.69414342306065, 29.34866130943168], [-102.68113488041236, 29.459136185970525], [-102.57084795298023, 29.609276443859898], [-102.47557612239162, 29.63468288354829], [-102.3555930028774, 29.63063294015783], [-102.30685334627371, 29.65513829418561], [-102.26571396214469, 29.707235100113927], [-102.16106186951984, 29.65994881515796], [-102.09169192372477, 29.648093926483398], [-101.96239646573427, 29.66555563931695], [-101.65795762099398, 29.625203798223424], [-101.57434196907302, 29.64373649474059], [-101.50061240565194, 29.619311013296198], [-101.44168826701348, 29.545534883851833], [-101.41928376727827, 29.496311502687348], [-101.35085572314232, 29.418403098622733], [-101.30657128135446, 29.390228349888357], [-101.24407617580911, 29.38033202282462], [-101.20431643552041, 29.350513690924565], [-101.14353097314016, 29.332134488055008], [-101.0829235276688, 29.253968891990365], [-100.96611389640312, 29.19113301242804], [-100.91377801120676, 29.145136956547105], [-100.87382600511684, 29.07172830001087], [-100.7982969574403, 29.015486882810325], [-100.75393118122226, 28.84422997959645], [-100.65966045605397, 28.723287796535118], [-100.61914313593826, 28.587871261428994], [-100.52842401172767, 28.502861391722632], [-100.38048271399745, 28.167453567100793], [-100.14421984462635, 27.99212283932886], [-100.09375746023615, 27.90266618000709], [-100.04771292290235, 27.865775980889726], [-100.02346332119639, 27.801660950477093], [-99.9370924841575, 27.673592724899457], [-99.85344589221617, 27.61284439047841], [-99.77920523521951, 27.536487936980617], [-99.66837534803038, 27.49980656324095], [-99.6381324136922, 27.41233542350485], [-99.66742554030554, 27.330930764505208], [-99.66632673421114, 27.275710206944286], [-99.63538110487818, 27.214280747226695], [-99.5764799386009, 27.170079519900643], [-99.58690694215518, 27.030227454540398], [-99.57811513109321, 26.977026463364023], [-99.54986806426155, 26.931094506957777], [-99.49420328283195, 26.887102475459244], [-99.43406027632993, 26.787341758052158], [-99.37554609082027, 26.744322063872715], [-99.34202326504693, 26.677815418669514], [-99.29943302079559, 26.493203760803745], [-99.25051673193137, 26.434201610646447], [-99.2278753946955, 26.34942601742759], [-99.18252989068111, 26.299072105958686], [-99.12322249503312, 26.262715864144855], [-99.02761269447913, 26.266841351249475], [-98.93019489251226, 26.223177722256704], [-98.86960712596337, 26.219196944948795], [-98.71187763152334, 26.108383697963205], [-98.65764549202035, 26.096001888929568], [-98.60830032853212, 26.1038844847638], [-98.50254139415345, 26.071167887971324], [-98.31469745561859, 25.94957644342737], [-98.24061088684437, 25.92310375861081], [-98.11259852453222, 25.918498938917914], [-98.04351953325256, 25.901340454461472], [-97.96625328951956, 25.92195818353441], [-97.83844917954116, 25.91683547150379], [-97.71837180674862, 25.879723445152546], [-97.67016600709657, 25.82865048208249], [-97.57513955626074, 25.763987040540993], [-97.4764843303785, 25.71114813767922], [-97.42337013761976, 25.700379924863395], [-97.36010838001472, 25.70069930327971], [-97.30856710265616, 25.715754992168208], [-97.26648395479471, 25.7491044405254], [-97.23420247989728, 25.807393298744625], [-97.13555314804316, 25.81061429353437], [-97.0853940068107, 25.82848749384498], [-97.04553688071815, 25.863797552442538], [-97.0102008117895, 25.935410926536868], [-97.00718693351165, 25.992367752839947], [-97.06062149656911, 26.337780964381455], [-97.18779544556227, 26.739333317788297], [-97.2279890317341, 26.906800520405962], [-97.23814918985171, 27.05670087268281], [-97.2210003180879, 27.204851932524043], [-97.16600642711516, 27.37436532340153], [-97.09122549576581, 27.526159546412625], [-96.89554194970022, 27.817680865001055], [-96.70303760486901, 28.00200158500666], [-96.56005237059374, 28.102288029137927], [-96.36731581298348, 28.1997900581835], [-96.25405387934589, 28.305197332052387], [-96.13139812345027, 28.376894437531643], [-95.75762804446066, 28.536145146375215], [-95.39707824660188, 28.723323477209572], [-95.30579574881433, 28.749158748422452], [-94.94629304025388, 29.032782656436897], [-94.63899227980114, 29.2191007762298], [-94.60294832665613, 29.25864336680395], [-94.58373453708455, 29.31436127586316], [-94.0273716140697, 29.532220686407317], [-93.84097621609459, 29.54048873566321], [-93.7414724397174, 29.589189083982156], [-93.70970404844917, 29.634515620958634], [-93.69798538922079, 29.688611819197888], [-93.70814823533438, 29.743021764951614], [-93.73776828273317, 29.789309789405376], [-93.68789075872964, 29.875610632628103], [-93.58844026288705, 29.975172034341707], [-93.56647014709168, 30.027794971215226], [-93.56802923042666, 30.290819214808206], [-93.58832004227443, 30.349219580922412], [-93.56343580717382, 30.415276217302058], [-93.57000531401768, 30.512061055647536], [-93.54727546684903, 30.5647184517529], [-93.50689087367661, 30.613098614974355], [-93.48700479835284, 30.67938092216702], [-93.44323913563713, 30.742076454463646], [-93.39130789229543, 30.914336375823577], [-93.40322977597498, 30.981905623240937], [-93.3914152634117, 31.04426751850756], [-93.39515564703221, 31.18966587975458], [-93.40759827300734, 31.24344197433121], [-93.52840759982476, 31.36998238943286], [-93.53943515877401, 31.430180394191275], [-93.58639334509955, 31.513159844206605], [-93.60385072361667, 31.572633017248705], [-93.62952014571971, 31.6056109837971], [-93.67629610160907, 31.634983096975528], [-93.6674693051137, 31.734117728347808], [-93.73550480898501, 31.880985750912323], [-93.80726865807289, 31.98873215358506], [-93.90189128173238, 32.049440738386195], [-93.90342807326796, 33.55156823065352], [-93.91903417087985, 33.6156603117594], [-93.951788875785, 33.65726578095473], [-94.0328378616812, 33.706448011030716], [-94.17239780657266, 33.73177940929287], [-94.25972333129775, 33.70937030895999], [-94.35289124591415, 33.706231631501986], [-94.42639005928027, 33.764601138366785], [-94.5378135345989, 33.80542530796532], [-94.59943824205308, 33.811763392697955], [-94.71457144100644, 33.878185004412536], [-94.80986926261521, 33.8839554108363], [-94.91945223624381, 33.97770903013246], [-94.99193116853915, 33.99565699847452], [-95.09216599698111, 34.06407467087949], [-95.20936273479522, 34.100914318318054], [-95.25108632124608, 34.09975907931799], [-95.30268434926354, 34.079340668866394], [-95.364348508931, 34.00793181845547], [-95.4453270466355, 34.01156702645827], [-95.4761505747072, 34.041375181811425], [-95.52807747000655, 34.064017798755586], [-95.61940581957097, 34.066306375099664], [-95.782422294992, 34.02856679677726], [-95.84094688663966, 34.00287937196722], [-95.94697114503231, 34.014613756588275], [-96.17902034187475, 33.969240461548836], [-96.23254327370158, 33.94619591089228], [-96.27052476799142, 33.90953066620448], [-96.34937053061672, 33.889667136619664], [-96.4275633335065, 33.91962942726379], [-96.51430457037972, 33.9983647604686], [-96.60839673815069, 34.046849816309766], [-96.6905568742358, 34.053267284002374], [-96.76734392946585, 34.006151918803845], [-96.82400584512288, 34.06123171781855], [-96.886144772349, 34.08590885412075], [-96.99886128737921, 34.07661705951853], [-97.09921541268231, 34.0044518883206], [-97.14432106792329, 34.039891687346476], [-97.20982626375672, 34.0542314874199], [-97.37012418760955, 33.99523953619015], [-97.4288685164624, 34.04457940576971], [-97.50043425117862, 34.05615953067744], [-97.54823694035225, 34.094175446932105], [-97.67578595631859, 34.131312445864985], [-97.73999271303776, 34.113623565643785], [-97.82038237064414, 34.049130824040255], [-97.8818155169539, 34.1146494600521], [-97.96236893806649, 34.13278832265504], [-98.01115713242226, 34.238246041125066], [-98.0888388433576, 34.29021282607709], [-98.15623345853427, 34.29062987152828], [-98.20782584383673, 34.266055202610076], [-98.37616742430554, 34.29658126591078], [-98.43013073069046, 34.28051794595999], [-98.47626749060802, 34.245829944660834], [-98.5333456245717, 34.28193719701], [-98.63133680717618, 34.30343704256871], [-98.68409219911568, 34.29972816603974], [-98.73073691827237, 34.27736789597245], [-98.82708086963835, 34.29764679309334], [-98.9052935013789, 34.339259373838935], [-99.07638881681032, 34.3496173039808], [-99.09764642527385, 34.39530008549811], [-99.1784514141049, 34.487656418942144], [-99.30848734493631, 34.57065972895883], [-99.40704918992675, 34.58157571761765], [-99.46006520963617, 34.56603765749052], [-99.49909004918965, 34.53542282654886], [-99.58935460317589, 34.54758811084896], [-99.65464716169558, 34.52876317913686], [-99.86038277787398, 34.698415532460515], [-99.86108009629847, 36.5134239735371], [-99.87693261082796, 36.56568928791497], [-99.90139969551281, 36.59868559294242], [-99.93439038640284, 36.623160247036765], [-99.9866520625016, 36.63902475192261], [-103.04189007615112, 36.6404389958899], [-103.08252095866672, 36.63442365190839], [-103.13069316748074, 36.608698110031334], [-103.16535812749174, 36.56649970064987], [-103.18192396973268, 36.500531058944425], [-103.18351520024996, 34.080644260923314], [-103.2048678697704, 32.851791286537406], [-103.20449987833814, 32.14051709350009], [-106.61848690600533, 32.14049499999707], [-106.670822530344, 32.13034448052092], [-106.71556922261422, 32.1013654510094], [-106.75112963388774, 32.04527966689677], [-106.77579459852471, 31.876403286212508], [-106.76682942278669, 31.821993815510915], [-106.7375486141094, 31.775266958980172], [-106.66034476566506, 31.698325383007642], [-106.53897019532036, 31.61878013813866], [-106.46889934130111, 31.608752819418726], [-106.38970696610494, 31.47407524778087]]]}}