{"type": "Feature", "properties": {"name": "Texas"}, "geometry": {"type": "Polygon", "coordinates": [[[-102.073646, 29.786926], [-102.115682, 29.79239], [-102.301381, 29.877674], [-102.349861, 29.862317], [-102.392906, 29.765569], [-102.512687, 29.780303], [-102.551081, 29.752358], [-102.677192, 29.738261], [-102.693466, 29.676507], [-102.808692, 29.522319], [-102.83097, 29.444267], [-102.824564, 29.399558], [-102.871857, 29.352093], [-102.891022, 29.287113], [-102.871347, 29.241625], [-102.917805, 29.190697], [-102.995688, 29.161219], [-103.035683, 29.103029], [-103.076355, 29.085722], [-103.126748, 28.982124], [-103.227801, 28.991532], [-103.28119, 28.982138], [-103.463196, 29.066822], [-103.524613, 29.120998], [-103.724743, 29.19147], [-103.789034, 29.257502], [-103.856893, 29.281852], [-103.975235, 29.296017], [-104.055596, 29.33091], [-104.143692, 29.383278], [-104.229081, 29.48105], [-104.371175, 29.543063], [-104.539761, 29.676074], [-104.565688, 29.770462], [-104.672327, 29.911112], [-104.685479, 29.989943], [-104.703998, 30.02421], [-104.692094, 30.107304], [-104.702788, 30.211736], [-104.761634, 30.301148], [-104.824314, 30.370466], [-104.859521, 30.390413], [-104.889376, 30.535144], [-104.924796, 30.604832], [-104.972071, 30.61026], [-105.00124, 30.672583], [-105.062334, 30.686303], [-105.21866, 30.801567], [-105.314863, 30.816961], [-105.394242, 30.852979], [-105.399609, 30.888941], [-105.55743, 30.990229], [-105.627349, 31.098545], [-105.773257, 31.166897], [-105.869353, 31.288634], [-105.938452, 31.318735], [-105.953943, 31.364749], [-106.004926, 31.392458], [-106.080258, 31.398702], [-106.175675, 31.456279], [-106.280811, 31.562062], [-106.303536, 31.620413], [-106.370139, 31.71071], [-106.41794, 31.752009], [-106.467642, 31.759608], [-106.484642, 31.747809], [-106.581344, 31.813906], [-106.63588, 31.871514], [-106.618486, 32.000495], [-103.064423, 32.000518], [-103.064889, 32.849359], [-103.043516, 34.079382], [-103.041924, 36.500439], [-100.000406, 36.499702], [-100.000381, 34.560509], [-99.929334, 34.576714], [-99.696462, 34.381036], [-99.600026, 34.374688], [-99.58448, 34.407673], [-99.420432, 34.380464], [-99.394956, 34.442099], [-99.350407, 34.437083], [-99.27534, 34.386599], [-99.2116, 34.31397], [-99.189511, 34.214312], [-98.94022, 34.203686], [-98.872229, 34.160446], [-98.80681, 34.155901], [-98.737232, 34.130992], [-98.690072, 34.133155], [-98.648073, 34.164441], [-98.577136, 34.148962], [-98.5282, 34.094961], [-98.475066, 34.064269], [-98.414426, 34.085074], [-98.398441, 34.128456], [-98.364023, 34.157109], [-98.16912, 34.114171], [-98.123377, 34.15454], [-98.099328, 34.104295], [-98.099096, 34.048639], [-98.082839, 34.002412], [-97.947572, 33.991053], [-97.951215, 33.878424], [-97.865765, 33.849393], [-97.803473, 33.88019], [-97.671772, 33.99137], [-97.609091, 33.968093], [-97.596155, 33.922106], [-97.55827, 33.897099], [-97.486505, 33.916994], [-97.451469, 33.87093], [-97.444193, 33.823773], [-97.372941, 33.819454], [-97.318243, 33.865121], [-97.206141, 33.91428], [-97.166629, 33.847311], [-97.205652, 33.809824], [-97.149394, 33.721967], [-97.091072, 33.735115], [-97.07859, 33.812756], [-97.055838, 33.855741], [-96.985567, 33.886522], [-96.988745, 33.918468], [-96.952313, 33.944582], [-96.905253, 33.947219], [-96.897194, 33.902954], [-96.850593, 33.847211], [-96.794276, 33.868886], [-96.776766, 33.841976], [-96.712422, 33.831633], [-96.659896, 33.916666], [-96.590112, 33.880665], [-96.592926, 33.830916], [-96.523863, 33.818114], [-96.502286, 33.77346], [-96.436455, 33.78005], [-96.363135, 33.694215], [-96.277269, 33.769735], [-96.229023, 33.748021], [-96.15163, 33.831946], [-95.935325, 33.875099], [-95.820596, 33.858465], [-95.737508, 33.895967], [-95.603657, 33.927195], [-95.556915, 33.92702], [-95.525322, 33.885487], [-95.44737, 33.86885], [-95.352338, 33.867789], [-95.283445, 33.877746], [-95.226393, 33.961954], [-95.149462, 33.936336], [-95.046568, 33.862565], [-94.98165, 33.852284], [-94.902276, 33.776289], [-94.841634, 33.739431], [-94.766146, 33.748031], [-94.714865, 33.707261], [-94.630586, 33.673401], [-94.572872, 33.669886], [-94.528928, 33.62184], [-94.485875, 33.637867], [-94.419057, 33.577217], [-94.388052, 33.565511], [-94.354165, 33.556452], [-94.338422, 33.567082], [-94.213605, 33.570622], [-94.183395, 33.592212], [-94.07267, 33.572234], [-94.043428, 33.551425], [-94.041833, 31.992402], [-93.977461, 31.926419], [-93.909557, 31.893144], [-93.85339, 31.805467], [-93.803419, 31.700686], [-93.834924, 31.586211], [-93.787687, 31.527344], [-93.725925, 31.504092], [-93.749476, 31.46869], [-93.697603, 31.428409], [-93.668146, 31.375103], [-93.67544, 31.30104], [-93.613942, 31.259375], [-93.602443, 31.182541], [-93.535097, 31.185614], [-93.531219, 31.051678], [-93.549841, 30.967118], [-93.530936, 30.924534], [-93.558617, 30.869424], [-93.569303, 30.802969], [-93.617688, 30.738479], [-93.629904, 30.67994], [-93.685121, 30.625201], [-93.684329, 30.592586], [-93.729195, 30.544842], [-93.710117, 30.5064], [-93.702665, 30.429947], [-93.745333, 30.397022], [-93.760328, 30.329924], [-93.70719, 30.275513], [-93.70394, 30.054291], [-93.807815, 29.954549], [-93.830374, 29.894359], [-93.929208, 29.802952], [-93.837971, 29.690619], [-93.861291, 29.679007], [-94.056506, 29.671163], [-94.670389, 29.43078], [-94.731047, 29.369141], [-94.72253, 29.331446], [-95.026219, 29.148064], [-95.38239, 28.866348], [-95.439594, 28.859022], [-95.812504, 28.664942], [-96.194412, 28.502224], [-96.328817, 28.423659], [-96.390376, 28.381815], [-96.442849, 28.317666], [-96.63201, 28.222821], [-96.792158, 28.110497], [-97.003325, 27.908307], [-97.212679, 27.59642], [-97.296057, 27.427175], [-97.358469, 27.234796], [-97.378697, 27.060044], [-97.366872, 26.885581], [-97.32275, 26.701746], [-97.196935, 26.305865], [-97.145567, 25.971132], [-97.156608, 25.949022], [-97.206945, 25.960899], [-97.338346, 25.923125], [-97.365976, 25.902447], [-97.360082, 25.868874], [-97.372864, 25.840117], [-97.422636, 25.840378], [-97.454727, 25.879337], [-97.496861, 25.880058], [-97.582565, 25.937857], [-97.644011, 26.006614], [-97.758838, 26.032131], [-97.795291, 26.055218], [-98.010971, 26.063863], [-98.039239, 26.041275], [-98.091038, 26.059169], [-98.197046, 26.056153], [-98.248806, 26.073101], [-98.442536, 26.199151], [-98.613465, 26.252028], [-98.654221, 26.23596], [-98.779912, 26.326542], [-98.807348, 26.369421], [-98.890965, 26.357569], [-98.958325, 26.394056], [-99.032316, 26.412082], [-99.082002, 26.39651], [-99.110855, 26.426278], [-99.091635, 26.476977], [-99.105031, 26.500335], [-99.171404, 26.549848], [-99.208907, 26.724761], [-99.268613, 26.843213], [-99.3289, 26.879761], [-99.387367, 26.982399], [-99.44697, 27.026026], [-99.429984, 27.159149], [-99.445238, 27.223341], [-99.487937, 27.294941], [-99.529654, 27.306051], [-99.487521, 27.412396], [-99.497519, 27.500496], [-99.52832, 27.498896], [-99.530138, 27.580207], [-99.556812, 27.614336], [-99.704601, 27.654954], [-99.758534, 27.717071], [-99.844737, 27.778809], [-99.904385, 27.875284], [-99.932161, 27.96771], [-99.984923, 27.990729], [-100.028725, 28.073118], [-100.075474, 28.124882], [-100.174413, 28.179448], [-100.267604, 28.250269], [-100.320393, 28.362117], [-100.337059, 28.427151], [-100.38886, 28.515748], [-100.39727, 28.575637], [-100.500354, 28.66196], [-100.53583, 28.805888], [-100.576846, 28.836168], [-100.627206, 28.903734], [-100.674656, 29.099777], [-100.772649, 29.168492], [-100.795681, 29.22773], [-100.886842, 29.307848], [-100.995607, 29.363403], [-101.060151, 29.458661], [-101.137503, 29.473542], [-101.19272, 29.520285], [-101.254895, 29.520342], [-101.305533, 29.577925], [-101.307332, 29.640716], [-101.367198, 29.664041], [-101.400636, 29.738079], [-101.503223, 29.764582], [-101.561569, 29.794658], [-101.654578, 29.765163], [-101.966167, 29.807343], [-102.073646, 29.786926]]]}}